STARLINK-37149          
1 68309U 26057R   26101.83334491 -.00070828  00000+0 -47705-3 0  9993
2 68309  97.2842 225.8940 0001299 109.2347 132.4094 15.75232367  4487
STARLINK-37148          
1 68310U 26057S   26101.83334491 -.01317717  00000+0 -94335-2 0  9997
2 68310  97.2852 225.9163 0001588  92.1042 200.9312 15.76218923  4590
STARLINK-37140          
1 68311U 26057T   26101.84445206  .00200612  00000+0  10210-2 0  9998
2 68311  97.2849 225.9304 0001484  74.1438 285.9994 15.80883936  3504
STARLINK-36854          
1 68312U 26057U   26101.84295021  .00356872  00000+0  17814-2 0  9994
2 68312  97.2855 225.9317 0001793  87.5526 272.5948 15.80906109  3504
STARLINK-36815          
1 68313U 26057V   26101.84219235  .00204017  00000+0  10419-2 0  9995
2 68313  97.2856 225.9334 0001536 147.7180 212.4182 15.80800333  3500
STARLINK-37155          
1 68314U 26057W   26101.84069797  .00377401  00000+0  18788-2 0  9997
2 68314  97.2855 225.9355 0001537  56.5521 303.5894 15.80911548  3503
STARLINK-37150          
1 68315U 26057X   26101.25002315  .00165803  00000+0  10956-2 0  9996
2 68315  97.2856 225.3014 0001062  31.8477 186.1648 15.75093735  4506
STARLINK-37154          
1 68316U 26057Y   26101.26948011  .00265792  00000+0  13385-2 0  9997
2 68316  97.2851 225.3334 0001378  79.8270 280.3154 15.80946486  3414
STARLINK-37139          
1 68317U 26057Z   26101.20693396  .00258671  00000+0  13057-2 0  9999
2 68317  97.2853 225.2652 0001666 101.1078 259.0378 15.80914221  3406
STARLINK-37113          
1 68318U 26057AA  26101.25002315 -.01882846  00000+0 -12738-1 0  9994
2 68318  97.2856 225.3143 0001561  74.3822 176.1509 15.78056005  4509
PROGRESS-MS 33          
1 68319U 26058A   26101.81196220  .00005753  00000+0  11297-3 0  9999
2 68319  51.6328 268.5866 0006452 301.0443  58.9912 15.48876576  2998
STARLINK-36987          
1 68321U 26059A   26101.69347892  .00233690  00000+0  11515-2 0  9997
2 68321  53.1575 197.4902 0000617  93.9196 266.1897 15.80953592  3190
STARLINK-37088          
1 68322U 26059B   26101.69198115  .00156869  00000+0  78224-3 0  9993
2 68322  53.1576 197.4797 0000911  68.5360 291.5760 15.80920734  3195
STARLINK-36983          
1 68323U 26059C   26101.75599506 -.00444937  00000+0 -24142-2 0  9997
2 68323  53.1575 197.1684 0000992 194.0568 166.0427 15.80461856  3204
STARLINK-37164          
1 68324U 26059D   26101.75444914  .00140954  00000+0  70449-3 0  9992
2 68324  53.1576 197.1580 0000888  96.1413 263.9711 15.80922075  4339
STARLINK-36309          
1 68325U 26059E   26101.75369647  .00228466  00000+0  11263-2 0  9995
2 68325  53.1574 197.1530 0001252 147.5746 212.5354 15.80956952  3208
