[{"OBJECT_NAME":"STARLINK-37149","OBJECT_ID":"2026-057R","EPOCH":"2026-04-11T20:00:01.000224","MEAN_MOTION":15.75232367,"ECCENTRICITY":0.0001299,"INCLINATION":97.2842,"RA_OF_ASC_NODE":225.894,"ARG_OF_PERICENTER":109.2347,"MEAN_ANOMALY":132.4094,"EPHEMERIS_TYPE":0,"CLASSIFICATION_TYPE":"U","NORAD_CAT_ID":68309,"ELEMENT_SET_NO":999,"REV_AT_EPOCH":448,"BSTAR":-0.00047705,"MEAN_MOTION_DOT":-0.00070828,"MEAN_MOTION_DDOT":0},{"OBJECT_NAME":"STARLINK-37148","OBJECT_ID":"2026-057S","EPOCH":"2026-04-11T20:00:01.000224","MEAN_MOTION":15.76218923,"ECCENTRICITY":0.0001588,"INCLINATION":97.2852,"RA_OF_ASC_NODE":225.9163,"ARG_OF_PERICENTER":92.1042,"MEAN_ANOMALY":200.9312,"EPHEMERIS_TYPE":0,"CLASSIFICATION_TYPE":"U","NORAD_CAT_ID":68310,"ELEMENT_SET_NO":999,"REV_AT_EPOCH":459,"BSTAR":-0.0094335,"MEAN_MOTION_DOT":-0.01317717,"MEAN_MOTION_DDOT":0},{"OBJECT_NAME":"STARLINK-37140","OBJECT_ID":"2026-057T","EPOCH":"2026-04-11T20:16:00.657984","MEAN_MOTION":15.80883936,"ECCENTRICITY":0.0001484,"INCLINATION":97.2849,"RA_OF_ASC_NODE":225.9304,"ARG_OF_PERICENTER":74.1438,"MEAN_ANOMALY":285.9994,"EPHEMERIS_TYPE":0,"CLASSIFICATION_TYPE":"U","NORAD_CAT_ID":68311,"ELEMENT_SET_NO":999,"REV_AT_EPOCH":350,"BSTAR":0.001021,"MEAN_MOTION_DOT":0.00200612,"MEAN_MOTION_DDOT":0},{"OBJECT_NAME":"STARLINK-36854","OBJECT_ID":"2026-057U","EPOCH":"2026-04-11T20:13:50.898144","MEAN_MOTION":15.80906109,"ECCENTRICITY":0.0001793,"INCLINATION":97.2855,"RA_OF_ASC_NODE":225.9317,"ARG_OF_PERICENTER":87.5526,"MEAN_ANOMALY":272.5948,"EPHEMERIS_TYPE":0,"CLASSIFICATION_TYPE":"U","NORAD_CAT_ID":68312,"ELEMENT_SET_NO":999,"REV_AT_EPOCH":350,"BSTAR":0.0017814,"MEAN_MOTION_DOT":0.00356872,"MEAN_MOTION_DDOT":0},{"OBJECT_NAME":"STARLINK-36815","OBJECT_ID":"2026-057V","EPOCH":"2026-04-11T20:12:45.419040","MEAN_MOTION":15.80800333,"ECCENTRICITY":0.0001536,"INCLINATION":97.2856,"RA_OF_ASC_NODE":225.9334,"ARG_OF_PERICENTER":147.718,"MEAN_ANOMALY":212.4182,"EPHEMERIS_TYPE":0,"CLASSIFICATION_TYPE":"U","NORAD_CAT_ID":68313,"ELEMENT_SET_NO":999,"REV_AT_EPOCH":350,"BSTAR":0.0010419,"MEAN_MOTION_DOT":0.00204017,"MEAN_MOTION_DDOT":0},{"OBJECT_NAME":"STARLINK-37155","OBJECT_ID":"2026-057W","EPOCH":"2026-04-11T20:10:36.304608","MEAN_MOTION":15.80911548,"ECCENTRICITY":0.0001537,"INCLINATION":97.2855,"RA_OF_ASC_NODE":225.9355,"ARG_OF_PERICENTER":56.5521,"MEAN_ANOMALY":303.5894,"EPHEMERIS_TYPE":0,"CLASSIFICATION_TYPE":"U","NORAD_CAT_ID":68314,"ELEMENT_SET_NO":999,"REV_AT_EPOCH":350,"BSTAR":0.0018788,"MEAN_MOTION_DOT":0.00377401,"MEAN_MOTION_DDOT":0},{"OBJECT_NAME":"STARLINK-37150","OBJECT_ID":"2026-057X","EPOCH":"2026-04-11T06:00:02.000160","MEAN_MOTION":15.75093735,"ECCENTRICITY":0.00010627,"INCLINATION":97.2856,"RA_OF_ASC_NODE":225.3014,"ARG_OF_PERICENTER":31.8477,"MEAN_ANOMALY":186.1648,"EPHEMERIS_TYPE":0,"CLASSIFICATION_TYPE":"U","NORAD_CAT_ID":68315,"ELEMENT_SET_NO":999,"REV_AT_EPOCH":450,"BSTAR":0.0010955897,"MEAN_MOTION_DOT":0.00165803,"MEAN_MOTION_DDOT":0},{"OBJECT_NAME":"STARLINK-37154","OBJECT_ID":"2026-057Y","EPOCH":"2026-04-11T06:28:03.081504","MEAN_MOTION":15.80946486,"ECCENTRICITY":0.00013787,"INCLINATION":97.2851,"RA_OF_ASC_NODE":225.3334,"ARG_OF_PERICENTER":79.827,"MEAN_ANOMALY":280.3154,"EPHEMERIS_TYPE":0,"CLASSIFICATION_TYPE":"U","NORAD_CAT_ID":68316,"ELEMENT_SET_NO":999,"REV_AT_EPOCH":341,"BSTAR":0.0013385184,"MEAN_MOTION_DOT":0.00265792,"MEAN_MOTION_DDOT":0},{"OBJECT_NAME":"STARLINK-37139","OBJECT_ID":"2026-057Z","EPOCH":"2026-04-11T04:57:59.094144","MEAN_MOTION":15.80914221,"ECCENTRICITY":0.00016665,"INCLINATION":97.2853,"RA_OF_ASC_NODE":225.2652,"ARG_OF_PERICENTER":101.1078,"MEAN_ANOMALY":259.0378,"EPHEMERIS_TYPE":0,"CLASSIFICATION_TYPE":"U","NORAD_CAT_ID":68317,"ELEMENT_SET_NO":999,"REV_AT_EPOCH":340,"BSTAR":0.0013056622,"MEAN_MOTION_DOT":0.00258671,"MEAN_MOTION_DDOT":0},{"OBJECT_NAME":"STARLINK-37113","OBJECT_ID":"2026-057AA","EPOCH":"2026-04-11T06:00:02.000160","MEAN_MOTION":15.78056005,"ECCENTRICITY":0.00015614,"INCLINATION":97.2856,"RA_OF_ASC_NODE":225.3143,"ARG_OF_PERICENTER":74.3822,"MEAN_ANOMALY":176.1509,"EPHEMERIS_TYPE":0,"CLASSIFICATION_TYPE":"U","NORAD_CAT_ID":68318,"ELEMENT_SET_NO":999,"REV_AT_EPOCH":450,"BSTAR":-0.012738217,"MEAN_MOTION_DOT":-0.01882846,"MEAN_MOTION_DDOT":0},{"OBJECT_NAME":"PROGRESS-MS 33","OBJECT_ID":"2026-058A","EPOCH":"2026-04-11T19:29:13.534080","MEAN_MOTION":15.48876576,"ECCENTRICITY":0.0006452,"INCLINATION":51.6328,"RA_OF_ASC_NODE":268.5866,"ARG_OF_PERICENTER":301.0443,"MEAN_ANOMALY":58.9912,"EPHEMERIS_TYPE":0,"CLASSIFICATION_TYPE":"U","NORAD_CAT_ID":68319,"ELEMENT_SET_NO":999,"REV_AT_EPOCH":299,"BSTAR":0.00011297,"MEAN_MOTION_DOT":5.753e-5,"MEAN_MOTION_DDOT":0},{"OBJECT_NAME":"STARLINK-36987","OBJECT_ID":"2026-059A","EPOCH":"2026-04-11T16:38:36.578688","MEAN_MOTION":15.80953592,"ECCENTRICITY":6.17e-5,"INCLINATION":53.1575,"RA_OF_ASC_NODE":197.4902,"ARG_OF_PERICENTER":93.9196,"MEAN_ANOMALY":266.1897,"EPHEMERIS_TYPE":0,"CLASSIFICATION_TYPE":"U","NORAD_CAT_ID":68321,"ELEMENT_SET_NO":999,"REV_AT_EPOCH":319,"BSTAR":0.0011515,"MEAN_MOTION_DOT":0.0023369,"MEAN_MOTION_DDOT":0},{"OBJECT_NAME":"STARLINK-37088","OBJECT_ID":"2026-059B","EPOCH":"2026-04-11T16:36:27.171360","MEAN_MOTION":15.80920734,"ECCENTRICITY":9.11e-5,"INCLINATION":53.1576,"RA_OF_ASC_NODE":197.4797,"ARG_OF_PERICENTER":68.536,"MEAN_ANOMALY":291.576,"EPHEMERIS_TYPE":0,"CLASSIFICATION_TYPE":"U","NORAD_CAT_ID":68322,"ELEMENT_SET_NO":999,"REV_AT_EPOCH":319,"BSTAR":0.00078224,"MEAN_MOTION_DOT":0.00156869,"MEAN_MOTION_DDOT":0},{"OBJECT_NAME":"STARLINK-36983","OBJECT_ID":"2026-059C","EPOCH":"2026-04-11T18:08:37.973184","MEAN_MOTION":15.80461856,"ECCENTRICITY":9.92e-5,"INCLINATION":53.1575,"RA_OF_ASC_NODE":197.1684,"ARG_OF_PERICENTER":194.0568,"MEAN_ANOMALY":166.0427,"EPHEMERIS_TYPE":0,"CLASSIFICATION_TYPE":"U","NORAD_CAT_ID":68323,"ELEMENT_SET_NO":999,"REV_AT_EPOCH":320,"BSTAR":-0.0024142,"MEAN_MOTION_DOT":-0.00444937,"MEAN_MOTION_DDOT":0},{"OBJECT_NAME":"STARLINK-37164","OBJECT_ID":"2026-059D","EPOCH":"2026-04-11T18:06:24.405696","MEAN_MOTION":15.80922075,"ECCENTRICITY":8.88e-5,"INCLINATION":53.1576,"RA_OF_ASC_NODE":197.158,"ARG_OF_PERICENTER":96.1413,"MEAN_ANOMALY":263.9711,"EPHEMERIS_TYPE":0,"CLASSIFICATION_TYPE":"U","NORAD_CAT_ID":68324,"ELEMENT_SET_NO":999,"REV_AT_EPOCH":433,"BSTAR":0.00070449,"MEAN_MOTION_DOT":0.00140954,"MEAN_MOTION_DDOT":0},{"OBJECT_NAME":"STARLINK-36309","OBJECT_ID":"2026-059E","EPOCH":"2026-04-11T18:05:19.375008","MEAN_MOTION":15.80956952,"ECCENTRICITY":0.0001252,"INCLINATION":53.1574,"RA_OF_ASC_NODE":197.153,"ARG_OF_PERICENTER":147.5746,"MEAN_ANOMALY":212.5354,"EPHEMERIS_TYPE":0,"CLASSIFICATION_TYPE":"U","NORAD_CAT_ID":68325,"ELEMENT_SET_NO":999,"REV_AT_EPOCH":320,"BSTAR":0.0011263,"MEAN_MOTION_DOT":0.00228466,"MEAN_MOTION_DDOT":0}]
